{
  "type": "FeatureCollection",
  "features": [
    {
      "type": "Feature",
      "properties": {
        "norad_id": 15362,
        "name": "NOVA 3",
        "group": "nnss",
        "lat": 45.797697690069164,
        "lon": -99.18232434046395,
        "alt_km": 1190.2208377069846,
        "timestamp": "2025-12-26T03:50:12.361853+00:00",
        "meta_object_name": "NOVA 3",
        "meta_object_id": "1984-110A",
        "meta_epoch": "2025-12-25T18:40:43.211424",
        "meta_mean_motion": 13.23046286,
        "meta_eccentricity": 0.0029854,
        "meta_inclination": 90.1217,
        "meta_ra_of_asc_node": 80.688,
        "meta_arg_of_pericenter": 294.3065,
        "meta_mean_anomaly": 183.5086,
        "meta_ephemeris_type": 0,
        "meta_classification_type": "U",
        "meta_norad_cat_id": 15362,
        "meta_element_set_no": 999,
        "meta_rev_at_epoch": 98871,
        "meta_bstar": 0.00014425,
        "meta_mean_motion_dot": 6.9e-07,
        "meta_mean_motion_ddot": 0,
        "tle_line1": "1 15362U 84110A   25359.77827791  .00000069  00000+0  14425-3 0  9996",
        "tle_line2": "2 15362  90.1217  80.6880 0029854 294.3065 183.5086 13.23046286988715"
      },
      "geometry": {
        "type": "Point",
        "coordinates": [
          -99.18232434046395,
          45.797697690069164
        ]
      }
    },
    {
      "type": "Feature",
      "properties": {
        "norad_id": 15935,
        "name": "OSCAR 30",
        "group": "nnss",
        "lat": 54.1881991658424,
        "lon": -79.704279612194,
        "alt_km": 1093.441125998621,
        "timestamp": "2025-12-26T03:50:12.361864+00:00",
        "meta_object_name": "OSCAR 30",
        "meta_object_id": "1985-066A",
        "meta_epoch": "2025-12-25T20:37:30.508896",
        "meta_mean_motion": 13.36080597,
        "meta_eccentricity": 0.0168801,
        "meta_inclination": 90.1653,
        "meta_ra_of_asc_node": 100.0616,
        "meta_arg_of_pericenter": 47.223,
        "meta_mean_anomaly": 72.1814,
        "meta_ephemeris_type": 0,
        "meta_classification_type": "U",
        "meta_norad_cat_id": 15935,
        "meta_element_set_no": 999,
        "meta_rev_at_epoch": 96628,
        "meta_bstar": 0.00020089,
        "meta_mean_motion_dot": 1.21e-06,
        "meta_mean_motion_ddot": 0,
        "tle_line1": "1 15935U 85066A   25359.85938089  .00000121  00000+0  20089-3 0  9997",
        "tle_line2": "2 15935  90.1653 100.0616 0168801  47.2230  72.1814 13.36080597966281"
      },
      "geometry": {
        "type": "Point",
        "coordinates": [
          -79.704279612194,
          54.1881991658424
        ]
      }
    },
    {
      "type": "Feature",
      "properties": {
        "norad_id": 15936,
        "name": "OSCAR 24",
        "group": "nnss",
        "lat": -13.669054380118745,
        "lon": -87.50078843564752,
        "alt_km": 1226.855887628557,
        "timestamp": "2025-12-26T03:50:12.361874+00:00",
        "meta_object_name": "OSCAR 24",
        "meta_object_id": "1985-066B",
        "meta_epoch": "2025-12-25T18:26:58.709184",
        "meta_mean_motion": 13.35937682,
        "meta_eccentricity": 0.0169998,
        "meta_inclination": 90.1791,
        "meta_ra_of_asc_node": 92.5359,
        "meta_arg_of_pericenter": 53.9382,
        "meta_mean_anomaly": 58.384,
        "meta_ephemeris_type": 0,
        "meta_classification_type": "U",
        "meta_norad_cat_id": 15936,
        "meta_element_set_no": 999,
        "meta_rev_at_epoch": 96817,
        "meta_bstar": 0.00016315,
        "meta_mean_motion_dot": 1e-06,
        "meta_mean_motion_ddot": 0,
        "tle_line1": "1 15936U 85066B   25359.76873506  .00000100  00000+0  16315-3 0  9994",
        "tle_line2": "2 15936  90.1791  92.5359 0169998  53.9382  58.3840 13.35937682968174"
      },
      "geometry": {
        "type": "Point",
        "coordinates": [
          -87.50078843564752,
          -13.669054380118745
        ]
      }
    },
    {
      "type": "Feature",
      "properties": {
        "norad_id": 17070,
        "name": "POLAR BEAR",
        "group": "nnss",
        "lat": 54.45331695737962,
        "lon": 2.69960495098537,
        "alt_km": 954.1099811004651,
        "timestamp": "2025-12-26T03:50:12.361885+00:00",
        "meta_object_name": "POLAR BEAR",
        "meta_object_id": "1986-088A",
        "meta_epoch": "2025-12-25T13:33:27.098208",
        "meta_mean_motion": 13.75253429,
        "meta_eccentricity": 0.0041279,
        "meta_inclination": 89.6169,
        "meta_ra_of_asc_node": 183.2601,
        "meta_arg_of_pericenter": 82.3818,
        "meta_mean_anomaly": 338.9269,
        "meta_ephemeris_type": 0,
        "meta_classification_type": "U",
        "meta_norad_cat_id": 17070,
        "meta_element_set_no": 999,
        "meta_rev_at_epoch": 96155,
        "meta_bstar": 0.00010362,
        "meta_mean_motion_dot": 1.11e-06,
        "meta_mean_motion_ddot": 0,
        "tle_line1": "1 17070U 86088A   25359.56489697  .00000111  00000+0  10362-3 0  9990",
        "tle_line2": "2 17070  89.6169 183.2601 0041279  82.3818 338.9269 13.75253429961557"
      },
      "geometry": {
        "type": "Point",
        "coordinates": [
          2.69960495098537,
          54.45331695737962
        ]
      }
    },
    {
      "type": "Feature",
      "properties": {
        "norad_id": 18361,
        "name": "OSCAR 27",
        "group": "nnss",
        "lat": -1.3382962054969256,
        "lon": 79.782711501109,
        "alt_km": 1171.3741637384783,
        "timestamp": "2025-12-26T03:50:12.361895+00:00",
        "meta_object_name": "OSCAR 27",
        "meta_object_id": "1987-080A",
        "meta_epoch": "2025-12-25T18:54:56.214432",
        "meta_mean_motion": 13.44909401,
        "meta_eccentricity": 0.0104016,
        "meta_inclination": 90.3736,
        "meta_ra_of_asc_node": 79.7601,
        "meta_arg_of_pericenter": 186.2684,
        "meta_mean_anomaly": 173.717,
        "meta_ephemeris_type": 0,
        "meta_classification_type": "U",
        "meta_norad_cat_id": 18361,
        "meta_element_set_no": 999,
        "meta_rev_at_epoch": 87732,
        "meta_bstar": 0.00017034,
        "meta_mean_motion_dot": 1.12e-06,
        "meta_mean_motion_ddot": 0,
        "tle_line1": "1 18361U 87080A   25359.78815063  .00000112  00000+0  17034-3 0  9995",
        "tle_line2": "2 18361  90.3736  79.7601 0104016 186.2684 173.7170 13.44909401877324"
      },
      "geometry": {
        "type": "Point",
        "coordinates": [
          79.782711501109,
          -1.3382962054969256
        ]
      }
    },
    {
      "type": "Feature",
      "properties": {
        "norad_id": 18362,
        "name": "OSCAR 29",
        "group": "nnss",
        "lat": -10.636679615860313,
        "lon": 80.30450630988423,
        "alt_km": 1157.628239786619,
        "timestamp": "2025-12-26T03:50:12.361906+00:00",
        "meta_object_name": "OSCAR 29",
        "meta_object_id": "1987-080B",
        "meta_epoch": "2025-12-25T19:34:53.499936",
        "meta_mean_motion": 13.44450875,
        "meta_eccentricity": 0.0104821,
        "meta_inclination": 90.3748,
        "meta_ra_of_asc_node": 80.2212,
        "meta_arg_of_pericenter": 209.3307,
        "meta_mean_anomaly": 275.5585,
        "meta_ephemeris_type": 0,
        "meta_classification_type": "U",
        "meta_norad_cat_id": 18362,
        "meta_element_set_no": 999,
        "meta_rev_at_epoch": 87685,
        "meta_bstar": 0.00015345,
        "meta_mean_motion_dot": 1e-06,
        "meta_mean_motion_ddot": 0,
        "tle_line1": "1 18362U 87080B   25359.81589699  .00000100  00000+0  15345-3 0  9993",
        "tle_line2": "2 18362  90.3748  80.2212 0104821 209.3307 275.5585 13.44450875876850"
      },
      "geometry": {
        "type": "Point",
        "coordinates": [
          80.30450630988423,
          -10.636679615860313
        ]
      }
    },
    {
      "type": "Feature",
      "properties": {
        "norad_id": 19070,
        "name": "OSCAR 23",
        "group": "nnss",
        "lat": 38.004619196560945,
        "lon": 16.557634585136086,
        "alt_km": 1185.959065724428,
        "timestamp": "2025-12-26T03:50:12.361916+00:00",
        "meta_object_name": "OSCAR 23",
        "meta_object_id": "1988-033A",
        "meta_epoch": "2025-12-25T15:34:55.886016",
        "meta_mean_motion": 13.27789128,
        "meta_eccentricity": 0.0190526,
        "meta_inclination": 90.3203,
        "meta_ra_of_asc_node": 16.7922,
        "meta_arg_of_pericenter": 144.1187,
        "meta_mean_anomaly": 336.7875,
        "meta_ephemeris_type": 0,
        "meta_classification_type": "U",
        "meta_norad_cat_id": 19070,
        "meta_element_set_no": 999,
        "meta_rev_at_epoch": 82424,
        "meta_bstar": 9.5671e-05,
        "meta_mean_motion_dot": 5.7e-07,
        "meta_mean_motion_ddot": 0,
        "tle_line1": "1 19070U 88033A   25359.64925794  .00000057  00000+0  95671-4 0  9992",
        "tle_line2": "2 19070  90.3203  16.7922 0190526 144.1187 336.7875 13.27789128824249"
      },
      "geometry": {
        "type": "Point",
        "coordinates": [
          16.557634585136086,
          38.004619196560945
        ]
      }
    }
  ]
}